{
  "norad_id": 54131,
  "name": "ONEWEB-0513",
  "history": [
    {
      "epoch": "2026-03-28T21:43:30.302976Z",
      "apogee_km": 1185.3120212816366,
      "perigee_km": 1182.1160805534773,
      "latitude_deg": -7.237123241347237e-06,
      "longitude_deg": 168.73748390746368,
      "height_km": 1187.17062336349,
      "semi_major_axis_km": 7561.851050917557,
      "eccentricity": 0.00021132,
      "inclination_deg": 87.9208,
      "raan_deg": 320.9327,
      "arg_perigee_deg": 110.4137,
      "mean_anomaly_deg": 249.7223,
      "mean_motion_rev_day": 13.202634
    },
    {
      "epoch": "2026-03-29T05:00:01.878912Z",
      "apogee_km": 1185.3279599548096,
      "perigee_km": 1182.0960256952767,
      "latitude_deg": -7.400660008142484e-05,
      "longitude_deg": 59.24682355278703,
      "height_km": 1187.1729111154505,
      "semi_major_axis_km": 7561.848992825043,
      "eccentricity": 0.0002137,
      "inclination_deg": 87.9207,
      "raan_deg": 320.8724,
      "arg_perigee_deg": 110.3418,
      "mean_anomaly_deg": 249.7944,
      "mean_motion_rev_day": 13.20263939
    },
    {
      "epoch": "2026-03-30T04:38:44.638944Z",
      "apogee_km": 1185.3425428836572,
      "perigee_km": 1182.0836879579156,
      "latitude_deg": 4.255589954027011e-05,
      "longitude_deg": 63.401487274352846,
      "height_km": 1187.161793918348,
      "semi_major_axis_km": 7561.850115420786,
      "eccentricity": 0.00021548,
      "inclination_deg": 87.9205,
      "raan_deg": 320.6763,
      "arg_perigee_deg": 109.7111,
      "mean_anomaly_deg": 250.4255,
      "mean_motion_rev_day": 13.20263645
    },
    {
      "epoch": "2026-03-30T13:44:24.122688Z",
      "apogee_km": 1185.3476558998655,
      "perigee_km": 1182.076551214649,
      "latitude_deg": 2.6240714148330668e-05,
      "longitude_deg": -73.46191814940629,
      "height_km": 1187.1574692865622,
      "semi_major_axis_km": 7561.849103557257,
      "eccentricity": 0.00021629,
      "inclination_deg": 87.9204,
      "raan_deg": 320.6009,
      "arg_perigee_deg": 109.5117,
      "mean_anomaly_deg": 250.625,
      "mean_motion_rev_day": 13.2026391
    },
    {
      "epoch": "2026-03-30T21:00:55.716768Z",
      "apogee_km": 1185.350859356855,
      "perigee_km": 1182.0712858477682,
      "latitude_deg": -6.223718661414006e-05,
      "longitude_deg": 177.04724518585013,
      "height_km": 1187.152684062396,
      "semi_major_axis_km": 7561.848072602312,
      "eccentricity": 0.00021685,
      "inclination_deg": 87.9205,
      "raan_deg": 320.5405,
      "arg_perigee_deg": 109.3202,
      "mean_anomaly_deg": 250.8165,
      "mean_motion_rev_day": 13.2026418
    },
    {
      "epoch": "2026-03-31T07:55:43.107456Z",
      "apogee_km": 1185.3613825415941,
      "perigee_km": 1182.0601822737071,
      "latitude_deg": 5.466106879867106e-05,
      "longitude_deg": 12.811001093512589,
      "height_km": 1187.1504193140802,
      "semi_major_axis_km": 7561.847782407651,
      "eccentricity": 0.00021828,
      "inclination_deg": 87.9203,
      "raan_deg": 320.4499,
      "arg_perigee_deg": 109.1179,
      "mean_anomaly_deg": 251.0191,
      "mean_motion_rev_day": 13.20264256
    },
    {
      "epoch": "2026-04-01T09:23:33.745056Z",
      "apogee_km": 1185.3877329346378,
      "perigee_km": 1182.0363214457875,
      "latitude_deg": 6.334340212014645e-05,
      "longitude_deg": -10.407159200652215,
      "height_km": 1187.1339234167185,
      "semi_major_axis_km": 7561.849027190213,
      "eccentricity": 0.0002216,
      "inclination_deg": 87.9201,
      "raan_deg": 320.2385,
      "arg_perigee_deg": 108.184,
      "mean_anomaly_deg": 251.9535,
      "mean_motion_rev_day": 13.2026393
    }
  ]
}